start=new Date('2023-03-12T00:00:00.000Z').valueOf();
sats=[{"MEAN_MOTION_DDOT":"0.0000000000000","PERIAPSIS":"538.814","LAUNCH_DATE":"2022-06-17","PERIOD":"95.437","MEAN_MOTION":"15.08843366","INCLINATION":"53.2155","BSTAR":"0.00004215800000","OBJECT_TYPE":"PAYLOAD","ECCENTRICITY":"0.00013310","RA_OF_ASC_NODE":"254.3664","MEAN_ELEMENT_THEORY":"SGP4","SEMIMAJOR_AXIS":"6917.870","TIME_SYSTEM":"UTC","MEAN_MOTION_DOT":"0.00000383","NORAD_CAT_ID":"52867","DECAY_DATE":null,"RCS_SIZE":"LARGE","ELEMENT_SET_NO":"999","ARG_OF_PERICENTER":"93.5716","APOAPSIS":"540.656","FILE":"3857847","MEAN_ANOMALY":"266.5429","GP_ID":"227891307","OBJECT_ID":"2022-062AP","OBJECT_NAME":"STARLINK-4126","EPHEMERIS_TYPE":"0","CLASSIFICATION_TYPE":"U","SITE":"AFETR","REV_AT_EPOCH":"4080","CENTER_NAME":"EARTH","REF_FRAME":"TEME","COUNTRY_CODE":"US","EPOCH":"2023-03-11T21:24:22.237056","TLE_LINE1":"1 52867U 22062AP  23070.89192404  .00000383  00000-0  42158-4 0  9997","TLE_LINE2":"2 52867  53.2155 254.3664 0001331  93.5716 266.5429 15.08843366 40800"},{"ELEMENT_SET_NO":"999","ARG_OF_PERICENTER":"87.1116","APOAPSIS":"540.609","FILE":"3857847","MEAN_ANOMALY":"273.0022","DECAY_DATE":null,"RCS_SIZE":"LARGE","MEAN_ELEMENT_THEORY":"SGP4","SEMIMAJOR_AXIS":"6917.862","MEAN_MOTION_DOT":"0.00006397","NORAD_CAT_ID":"52868","TIME_SYSTEM":"UTC","RA_OF_ASC_NODE":"255.2379","OBJECT_TYPE":"PAYLOAD","ECCENTRICITY":"0.00012750","BSTAR":"0.00041957000000","INCLINATION":"53.2143","LAUNCH_DATE":"2022-06-17","PERIOD":"95.437","MEAN_MOTION":"15.08845916","MEAN_MOTION_DDOT":"0.0000000000000","PERIAPSIS":"538.845","TLE_LINE2":"2 52868  53.2143 255.2379 0001275  87.1116 273.0022 15.08845916 40772","TLE_LINE1":"1 52868U 22062AQ  23070.70424943  .00006397  00000-0  41957-3 0  9990","EPOCH":"2023-03-11T16:54:07.150752","REF_FRAME":"TEME","COUNTRY_CODE":"US","SITE":"AFETR","REV_AT_EPOCH":"4077","CENTER_NAME":"EARTH","CLASSIFICATION_TYPE":"U","GP_ID":"227890056","OBJECT_ID":"2022-062AQ","EPHEMERIS_TYPE":"0","OBJECT_NAME":"STARLINK-4261"},{"ECCENTRICITY":"0.00013890","OBJECT_TYPE":"PAYLOAD","INCLINATION":"53.2174","BSTAR":"0.00095104000000","MEAN_MOTION":"15.08838736","PERIOD":"95.438","LAUNCH_DATE":"2022-06-17","PERIAPSIS":"538.788","MEAN_MOTION_DDOT":"0.0000000000000","FILE":"3857847","MEAN_ANOMALY":"301.8170","APOAPSIS":"540.710","ELEMENT_SET_NO":"999","ARG_OF_PERICENTER":"58.2957","RCS_SIZE":"LARGE","DECAY_DATE":null,"MEAN_MOTION_DOT":"0.00014880","NORAD_CAT_ID":"52869","TIME_SYSTEM":"UTC","SEMIMAJOR_AXIS":"6917.884","MEAN_ELEMENT_THEORY":"SGP4","RA_OF_ASC_NODE":"245.2884","CENTER_NAME":"EARTH","REV_AT_EPOCH":"4090","SITE":"AFETR","CLASSIFICATION_TYPE":"U","OBJECT_NAME":"STARLINK-4266","EPHEMERIS_TYPE":"0","OBJECT_ID":"2022-062AR","GP_ID":"227890306","TLE_LINE2":"2 52869  53.2174 245.2884 0001389  58.2957 301.8170 15.08838736 40906","TLE_LINE1":"1 52869U 22062AR  23070.68676705  .00014880  00000-0  95104-3 0  9992","EPOCH":"2023-03-11T16:28:56.673120","COUNTRY_CODE":"US","REF_FRAME":"TEME"},{"CLASSIFICATION_TYPE":"U","CENTER_NAME":"EARTH","REV_AT_EPOCH":"4077","SITE":"AFETR","EPHEMERIS_TYPE":"0","OBJECT_NAME":"STARLINK-4195","OBJECT_ID":"2022-062AS","GP_ID":"227890558","TLE_LINE1":"1 52870U 22062AS  23070.69688616  .00004723  00000-0  31463-3 0  9992","TLE_LINE2":"2 52870  53.2137 255.2456 0001446  81.5535 278.5621 15.08839372 40771","COUNTRY_CODE":"US","REF_FRAME":"TEME","EPOCH":"2023-03-11T16:43:30.964224","BSTAR":"0.00031463000000","INCLINATION":"53.2137","ECCENTRICITY":"0.00014460","OBJECT_TYPE":"PAYLOAD","PERIAPSIS":"538.747","MEAN_MOTION_DDOT":"0.0000000000000","MEAN_MOTION":"15.08839372","PERIOD":"95.438","LAUNCH_DATE":"2022-06-17","RCS_SIZE":"LARGE","DECAY_DATE":null,"MEAN_ANOMALY":"278.5621","FILE":"3857847","APOAPSIS":"540.748","ELEMENT_SET_NO":"999","ARG_OF_PERICENTER":"81.5535","RA_OF_ASC_NODE":"255.2456","MEAN_MOTION_DOT":"0.00004723","NORAD_CAT_ID":"52870","TIME_SYSTEM":"UTC","SEMIMAJOR_AXIS":"6917.882","MEAN_ELEMENT_THEORY":"SGP4"},{"ELEMENT_SET_NO":"999","ARG_OF_PERICENTER":"73.7377","APOAPSIS":"540.514","MEAN_ANOMALY":"286.3742","FILE":"3857847","DECAY_DATE":null,"RCS_SIZE":"LARGE","MEAN_ELEMENT_THEORY":"SGP4","SEMIMAJOR_AXIS":"6917.845","NORAD_CAT_ID":"52871","MEAN_MOTION_DOT":"0.00010043","TIME_SYSTEM":"UTC","RA_OF_ASC_NODE":"244.4463","OBJECT_TYPE":"PAYLOAD","ECCENTRICITY":"0.00011610","INCLINATION":"53.2168","BSTAR":"0.00064796000000","LAUNCH_DATE":"2022-06-17","PERIOD":"95.437","MEAN_MOTION":"15.08851456","MEAN_MOTION_DDOT":"0.0000000000000","PERIAPSIS":"538.907","TLE_LINE2":"2 52871  53.2168 244.4463 0001161  73.7377 286.3742 15.08851456 40931","TLE_LINE1":"1 52871U 22062AT  23070.87444400  .00010043  00000-0  64796-3 0  9991","EPOCH":"2023-03-11T20:59:11.961600","REF_FRAME":"TEME","COUNTRY_CODE":"US","SITE":"AFETR","REV_AT_EPOCH":"4093","CENTER_NAME":"EARTH","CLASSIFICATION_TYPE":"U","GP_ID":"227890809","OBJECT_ID":"2022-062AT","OBJECT_NAME":"STARLINK-4207","EPHEMERIS_TYPE":"0"},{"EPHEMERIS_TYPE":"0","OBJECT_NAME":"STARLINK-4213","OBJECT_ID":"2022-062AU","GP_ID":"227889557","CLASSIFICATION_TYPE":"U","CENTER_NAME":"EARTH","REV_AT_EPOCH":"4090","SITE":"AFETR","COUNTRY_CODE":"US","REF_FRAME":"TEME","EPOCH":"2023-03-11T16:23:38.763456","TLE_LINE1":"1 52872U 22062AU  23070.68308754  .00002856  00000-0  19743-3 0  9997","TLE_LINE2":"2 52872  53.2154 245.3046 0001142  71.5712 288.5404 15.08840302 40906","PERIAPSIS":"538.954","MEAN_MOTION_DDOT":"0.0000000000000","MEAN_MOTION":"15.08840302","PERIOD":"95.438","LAUNCH_DATE":"2022-06-17","INCLINATION":"53.2154","BSTAR":"0.00019743000000","ECCENTRICITY":"0.00011420","OBJECT_TYPE":"PAYLOAD","RA_OF_ASC_NODE":"245.3046","MEAN_MOTION_DOT":"0.00002856","TIME_SYSTEM":"UTC","NORAD_CAT_ID":"52872","SEMIMAJOR_AXIS":"6917.879","MEAN_ELEMENT_THEORY":"SGP4","RCS_SIZE":"LARGE","DECAY_DATE":null,"FILE":"3857847","MEAN_ANOMALY":"288.5404","APOAPSIS":"540.534","ELEMENT_SET_NO":"999","ARG_OF_PERICENTER":"71.5712"},{"REF_FRAME":"TEME","COUNTRY_CODE":"US","EPOCH":"2023-03-11T20:48:35.285184","TLE_LINE1":"1 52873U 22062AV  23070.86707506  .00001546  00000-0  11515-3 0  9990","TLE_LINE2":"2 52873  53.2163 244.4813 0000984  94.8116 265.2988 15.08855402 40937","GP_ID":"227889807","OBJECT_ID":"2022-062AV","OBJECT_NAME":"STARLINK-4211","EPHEMERIS_TYPE":"0","CLASSIFICATION_TYPE":"U","SITE":"AFETR","REV_AT_EPOCH":"4093","CENTER_NAME":"EARTH","RA_OF_ASC_NODE":"244.4813","MEAN_ELEMENT_THEORY":"SGP4","SEMIMAJOR_AXIS":"6917.833","NORAD_CAT_ID":"52873","MEAN_MOTION_DOT":"0.00001546","TIME_SYSTEM":"UTC","DECAY_DATE":null,"RCS_SIZE":"LARGE","ELEMENT_SET_NO":"999","ARG_OF_PERICENTER":"94.8116","APOAPSIS":"540.379","MEAN_ANOMALY":"265.2988","FILE":"3857847","MEAN_MOTION_DDOT":"0.0000000000000","PERIAPSIS":"539.018","LAUNCH_DATE":"2022-06-17","PERIOD":"95.437","MEAN_MOTION":"15.08855402","INCLINATION":"53.2163","BSTAR":"0.00011515000000","OBJECT_TYPE":"PAYLOAD","ECCENTRICITY":"0.00009840"},{"EPHEMERIS_TYPE":"0","OBJECT_NAME":"STARLINK-4210","OBJECT_ID":"2022-062AW","GP_ID":"227891058","CENTER_NAME":"EARTH","REV_AT_EPOCH":"4090","SITE":"AFETR","CLASSIFICATION_TYPE":"U","EPOCH":"2023-03-11T16:18:20.759616","COUNTRY_CODE":"US","REF_FRAME":"TEME","TLE_LINE2":"2 52874  53.2168 245.3213 0001166  70.3841 289.7277 15.08839232 40906","TLE_LINE1":"1 52874U 22062AW  23070.67940694 -.00000150  00000-0  86423-5 0  9990","MEAN_MOTION":"15.08839232","PERIOD":"95.438","LAUNCH_DATE":"2022-06-17","PERIAPSIS":"538.941","MEAN_MOTION_DDOT":"0.0000000000000","ECCENTRICITY":"0.00011660","OBJECT_TYPE":"PAYLOAD","INCLINATION":"53.2168","BSTAR":"0.00000864230000","NORAD_CAT_ID":"52874","MEAN_MOTION_DOT":"-0.00000150","TIME_SYSTEM":"UTC","SEMIMAJOR_AXIS":"6917.883","MEAN_ELEMENT_THEORY":"SGP4","RA_OF_ASC_NODE":"245.3213","MEAN_ANOMALY":"289.7277","FILE":"3857847","APOAPSIS":"540.554","ELEMENT_SET_NO":"999","ARG_OF_PERICENTER":"70.3841","RCS_SIZE":"LARGE","DECAY_DATE":null},{"SITE":"AFETR","REV_AT_EPOCH":"4093","CENTER_NAME":"EARTH","CLASSIFICATION_TYPE":"U","GP_ID":"227891308","OBJECT_ID":"2022-062AX","OBJECT_NAME":"STARLINK-4193","EPHEMERIS_TYPE":"0","TLE_LINE2":"2 52875  53.2150 244.4962 0001048  80.1321 279.9789 15.08845208 40932","TLE_LINE1":"1 52875U 22062AX  23070.86340152  .00001398  00000-0  10586-3 0  9994","EPOCH":"2023-03-11T20:43:17.891328","REF_FRAME":"TEME","COUNTRY_CODE":"US","OBJECT_TYPE":"PAYLOAD","ECCENTRICITY":"0.00010480","BSTAR":"0.00010586000000","INCLINATION":"53.2150","LAUNCH_DATE":"2022-06-17","PERIOD":"95.437","MEAN_MOTION":"15.08845208","MEAN_MOTION_DDOT":"0.0000000000000","PERIAPSIS":"539.004","ELEMENT_SET_NO":"999","ARG_OF_PERICENTER":"80.1321","APOAPSIS":"540.454","MEAN_ANOMALY":"279.9789","FILE":"3857847","DECAY_DATE":null,"RCS_SIZE":"LARGE","MEAN_ELEMENT_THEORY":"SGP4","SEMIMAJOR_AXIS":"6917.864","NORAD_CAT_ID":"52875","MEAN_MOTION_DOT":"0.00001398","TIME_SYSTEM":"UTC","RA_OF_ASC_NODE":"244.4962"},{"GP_ID":"227890057","OBJECT_ID":"2022-062AY","EPHEMERIS_TYPE":"0","OBJECT_NAME":"STARLINK-4200","SITE":"AFETR","REV_AT_EPOCH":"4093","CENTER_NAME":"EARTH","CLASSIFICATION_TYPE":"U","EPOCH":"2023-03-11T20:53:54.100320","REF_FRAME":"TEME","COUNTRY_CODE":"US","TLE_LINE2":"2 52876  53.2150 244.4623 0001268  88.2332 271.8805 15.08846427 40936","TLE_LINE1":"1 52876U 22062AY  23070.87076505  .00003353  00000-0  22863-3 0  9998","LAUNCH_DATE":"2022-06-17","PERIOD":"95.437","MEAN_MOTION":"15.08846427","MEAN_MOTION_DDOT":"0.0000000000000","PERIAPSIS":"538.849","OBJECT_TYPE":"PAYLOAD","ECCENTRICITY":"0.00012680","BSTAR":"0.00022863000000","INCLINATION":"53.2150","MEAN_ELEMENT_THEORY":"SGP4","SEMIMAJOR_AXIS":"6917.861","NORAD_CAT_ID":"52876","MEAN_MOTION_DOT":"0.00003353","TIME_SYSTEM":"UTC","RA_OF_ASC_NODE":"244.4623","ELEMENT_SET_NO":"999","ARG_OF_PERICENTER":"88.2332","APOAPSIS":"540.603","FILE":"3857847","MEAN_ANOMALY":"271.8805","DECAY_DATE":null,"RCS_SIZE":"LARGE"}];
